{"type": "FeatureCollection", "features": [ {"type": "Feature", "properties": {"norad_id": 66509, "name": "STARLINK-35598", "group": "last-30-days", "lat": 42.26050406023811, "lon": -126.97890221609875, "alt_km": 399.72129400958147, "timestamp": "2025-12-07T11:27:48.740299+00:00", "meta": {"OBJECT_NAME": "STARLINK-35598", "OBJECT_ID": "2025-263AA", "EPOCH": "2025-12-07T00:00:02.000160", "MEAN_MOTION": 15.56108144, "ECCENTRICITY": 0.00017206, "INCLINATION": 42.9997, "RA_OF_ASC_NODE": 158.6367, "ARG_OF_PERICENTER": 267.3138, "MEAN_ANOMALY": 16.228, "EPHEMERIS_TYPE": 0, "CLASSIFICATION_TYPE": "U", "NORAD_CAT_ID": 66509, "ELEMENT_SET_NO": 999, "REV_AT_EPOCH": 471, "BSTAR": -0.03207728, "MEAN_MOTION_DOT": -0.02053099, "MEAN_MOTION_DDOT": 0}, "tle": {"line1": "1 66509U 25263AA  25341.00002315 -.02053099  00000+0 -32077-1 0  9999", "line2": "2 66509  42.9997 158.6367 0001720 267.3138  16.2280 15.56108144  4710"}}, "geometry": {"type": "Point", "coordinates": [-126.97890221609875, 42.26050406023811]}}, {"type": "Feature", "properties": {"norad_id": 66510, "name": "STARLINK-35600", "group": "last-30-days", "lat": 41.139420691375264, "lon": -134.53080387009192, "alt_km": 399.8023210854544, "timestamp": "2025-12-07T11:27:48.740309+00:00", "meta": {"OBJECT_NAME": "STARLINK-35600", "OBJECT_ID": "2025-263AB", "EPOCH": "2025-12-07T00:00:02.000160", "MEAN_MOTION": 15.56106768, "ECCENTRICITY": 0.00016052, "INCLINATION": 42.9997, "RA_OF_ASC_NODE": 158.6515, "ARG_OF_PERICENTER": 264.3387, "MEAN_ANOMALY": 13.4542, "EPHEMERIS_TYPE": 0, "CLASSIFICATION_TYPE": "U", "NORAD_CAT_ID": 66510, "ELEMENT_SET_NO": 999, "REV_AT_EPOCH": 471, "BSTAR": -0.032066104, "MEAN_MOTION_DOT": -0.0205229, "MEAN_MOTION_DDOT": 0}, "tle": {"line1": "1 66510U 25263AB  25341.00002315 -.02052290  00000+0 -32066-1 0  9991", "line2": "2 66510  42.9997 158.6515 0001605 264.3387  13.4542 15.56106768  4712"}}, "geometry": {"type": "Point", "coordinates": [-134.53080387009192, 41.139420691375264]}}, {"type": "Feature", "properties": {"norad_id": 66511, "name": "STARLINK-35444", "group": "last-30-days", "lat": 41.942325890053645, "lon": -129.52396954994316, "alt_km": 399.65499162084507, "timestamp": "2025-12-07T11:27:48.740319+00:00", "meta": {"OBJECT_NAME": "STARLINK-35444", "OBJECT_ID": "2025-263AC", "EPOCH": "2025-12-07T00:00:02.000160", "MEAN_MOTION": 15.56109953, "ECCENTRICITY": 0.00015788, "INCLINATION": 42.9998, "RA_OF_ASC_NODE": 158.6426, "ARG_OF_PERICENTER": 268.9028, "MEAN_ANOMALY": 12.7219, "EPHEMERIS_TYPE": 0, "CLASSIFICATION_TYPE": "U", "NORAD_CAT_ID": 66511, "ELEMENT_SET_NO": 999, "REV_AT_EPOCH": 471, "BSTAR": -0.032144479, "MEAN_MOTION_DOT": -0.02056968, "MEAN_MOTION_DDOT": 0}, "tle": {"line1": "1 66511U 25263AC  25341.00002315 -.02056968  00000+0 -32144-1 0  9995", "line2": "2 66511  42.9998 158.6426 0001578 268.9028  12.7219 15.56109953  4718"}}, "geometry": {"type": "Point", "coordinates": [-129.52396954994316, 41.942325890053645]}}, {"type": "Feature", "properties": {"norad_id": 66512, "name": "STARLINK-35366", "group": "last-30-days", "lat": 42.52157171016769, "lon": -124.41007966051959, "alt_km": 399.64223871172544, "timestamp": "2025-12-07T11:27:48.740329+00:00", "meta": {"OBJECT_NAME": "STARLINK-35366", "OBJECT_ID": "2025-263AD", "EPOCH": "2025-12-07T00:00:02.000160", "MEAN_MOTION": 15.5610954, "ECCENTRICITY": 0.00016374, "INCLINATION": 42.9997, "RA_OF_ASC_NODE": 158.6326, "ARG_OF_PERICENTER": 265.1628, "MEAN_ANOMALY": 20.2952, "EPHEMERIS_TYPE": 0, "CLASSIFICATION_TYPE": "U", "NORAD_CAT_ID": 66512, "ELEMENT_SET_NO": 999, "REV_AT_EPOCH": 471, "BSTAR": -0.03209793, "MEAN_MOTION_DOT": -0.02054319, "MEAN_MOTION_DDOT": 0}, "tle": {"line1": "1 66512U 25263AD  25341.00002315 -.02054319  00000+0 -32098-1 0  9992", "line2": "2 66512  42.9997 158.6326 0001637 265.1628  20.2952 15.56109540  4718"}}, "geometry": {"type": "Point", "coordinates": [-124.41007966051959, 42.52157171016769]}}, {"type": "Feature", "properties": {"norad_id": 66513, "name": "STARLINK-35692", "group": "last-30-days", "lat": 41.56820966632001, "lon": -132.04176165831535, "alt_km": 399.7949409642815, "timestamp": "2025-12-07T11:27:48.740341+00:00", "meta": {"OBJECT_NAME": "STARLINK-35692", "OBJECT_ID": "2025-263AE", "EPOCH": "2025-12-07T00:00:02.000160", "MEAN_MOTION": 15.56104688, "ECCENTRICITY": 0.00017026, "INCLINATION": 42.9996, "RA_OF_ASC_NODE": 158.6468, "ARG_OF_PERICENTER": 266.0613, "MEAN_ANOMALY": 13.6485, "EPHEMERIS_TYPE": 0, "CLASSIFICATION_TYPE": "U", "NORAD_CAT_ID": 66513, "ELEMENT_SET_NO": 999, "REV_AT_EPOCH": 471, "BSTAR": -0.031993521, "MEAN_MOTION_DOT": -0.02048063, "MEAN_MOTION_DDOT": 0}, "tle": {"line1": "1 66513U 25263AE  25341.00002315 -.02048063  00000+0 -31994-1 0  9996", "line2": "2 66513  42.9996 158.6468 0001702 266.0613  13.6485 15.56104688  4717"}}, "geometry": {"type": "Point", "coordinates": [-132.04176165831535, 41.56820966632001]}}, {"type": "Feature", "properties": {"norad_id": 66514, "name": "SENTINEL-6B", "group": "last-30-days", "lat": -54.21839196714327, "lon": 135.28880777851606, "alt_km": 1316.3336996241396, "timestamp": "2025-12-07T11:27:48.740351+00:00", "meta": {"OBJECT_NAME": "SENTINEL-6B", "OBJECT_ID": "2025-264A", "EPOCH": "2025-12-05T07:31:22.416096", "MEAN_MOTION": 12.85877769, "ECCENTRICITY": 0.00115488, "INCLINATION": 66.0393, "RA_OF_ASC_NODE": 177.917, "ARG_OF_PERICENTER": 268.4031, "MEAN_ANOMALY": 91.5664, "EPHEMERIS_TYPE": 0, "CLASSIFICATION_TYPE": "U", "NORAD_CAT_ID": 66514, "ELEMENT_SET_NO": 999, "REV_AT_EPOCH": 233, "BSTAR": 0.00030181714, "MEAN_MOTION_DOT": 1.3e-07, "MEAN_MOTION_DDOT": 0}, "tle": {"line1": "1 66514U 25264A   25339.31345389  .00000013  00000+0  30182-3 0  9999", "line2": "2 66514  66.0393 177.9170 0011548 268.4031  91.5664 12.85877769  2335"}}, "geometry": {"type": "Point", "coordinates": [135.28880777851606, -54.21839196714327]}}, {"type": "Feature", "properties": {"norad_id": 66516, "name": "STARLINK-35924", "group": "last-30-days", "lat": -14.233419493143815, "lon": -79.29641351772194, "alt_km": 385.3187416480905, "timestamp": "2025-12-07T11:27:48.740362+00:00", "meta": {"OBJECT_NAME": "STARLINK-35924", "OBJECT_ID": "2025-265A", "EPOCH": "2025-12-07T00:00:02.000160", "MEAN_MOTION": 15.63368724, "ECCENTRICITY": 0.00016479, "INCLINATION": 43.0007, "RA_OF_ASC_NODE": 87.7518, "ARG_OF_PERICENTER": 282.7805, "MEAN_ANOMALY": 108.7444, "EPHEMERIS_TYPE": 0, "CLASSIFICATION_TYPE": "U", "NORAD_CAT_ID": 66516, "ELEMENT_SET_NO": 999, "REV_AT_EPOCH": 405, "BSTAR": -0.024210443, "MEAN_MOTION_DOT": -0.0201339, "MEAN_MOTION_DDOT": 0}, "tle": {"line1": "1 66516U 25265A   25341.00002315 -.02013390  00000+0 -24210-1 0  9999", "line2": "2 66516  43.0007  87.7518 0001647 282.7805 108.7444 15.63368724  4058"}}, "geometry": {"type": "Point", "coordinates": [-79.29641351772194, -14.233419493143815]}}, {"type": "Feature", "properties": {"norad_id": 66517, "name": "STARLINK-35937", "group": "last-30-days", "lat": -15.486048478452615, "lon": -77.79928258209462, "alt_km": 385.3740031759462, "timestamp": "2025-12-07T11:27:48.740374+00:00", "meta": {"OBJECT_NAME": "STARLINK-35937", "OBJECT_ID": "2025-265B", "EPOCH": "2025-12-07T00:00:02.000160", "MEAN_MOTION": 15.63370728, "ECCENTRICITY": 0.00016055, "INCLINATION": 43.0005, "RA_OF_ASC_NODE": 87.7477, "ARG_OF_PERICENTER": 281.8741, "MEAN_ANOMALY": 111.5663, "EPHEMERIS_TYPE": 0, "CLASSIFICATION_TYPE": "U", "NORAD_CAT_ID": 66517, "ELEMENT_SET_NO": 999, "REV_AT_EPOCH": 407, "BSTAR": -0.024232117, "MEAN_MOTION_DOT": -0.02015077, "MEAN_MOTION_DDOT": 0}, "tle": {"line1": "1 66517U 25265B   25341.00002315 -.02015077  00000+0 -24232-1 0  9998", "line2": "2 66517  43.0005  87.7477 0001605 281.8741 111.5663 15.63370728  4078"}}, "geometry": {"type": "Point", "coordinates": [-77.79928258209462, -15.486048478452615]}}, {"type": "Feature", "properties": {"norad_id": 66518, "name": "STARLINK-35962", "group": "last-30-days", "lat": -16.727444142849304, "lon": -76.28665293723547, "alt_km": 385.4718938496417, "timestamp": "2025-12-07T11:27:48.740385+00:00", "meta": {"OBJECT_NAME": "STARLINK-35962", "OBJECT_ID": "2025-265C", "EPOCH": "2025-12-07T00:00:02.000160", "MEAN_MOTION": 15.63369358, "ECCENTRICITY": 0.00016625, "INCLINATION": 43.0005, "RA_OF_ASC_NODE": 87.7422, "ARG_OF_PERICENTER": 283.0488, "MEAN_ANOMALY": 112.3095, "EPHEMERIS_TYPE": 0, "CLASSIFICATION_TYPE": "U", "NORAD_CAT_ID": 66518, "ELEMENT_SET_NO": 999, "REV_AT_EPOCH": 407, "BSTAR": -0.024213882, "MEAN_MOTION_DOT": -0.02013697, "MEAN_MOTION_DDOT": 0}, "tle": {"line1": "1 66518U 25265C   25341.00002315 -.02013697  00000+0 -24214-1 0  9995", "line2": "2 66518  43.0005  87.7422 0001662 283.0488 112.3095 15.63369358  4079"}}, "geometry": {"type": "Point", "coordinates": [-76.28665293723547, -16.727444142849304]}}, {"type": "Feature", "properties": {"norad_id": 66519, "name": "STARLINK-35931", "group": "last-30-days", "lat": -17.957971610028757, "lon": -74.75313482754196, "alt_km": 385.560670958369, "timestamp": "2025-12-07T11:27:48.740395+00:00", "meta": {"OBJECT_NAME": "STARLINK-35931", "OBJECT_ID": "2025-265D", "EPOCH": "2025-12-07T00:00:02.000160", "MEAN_MOTION": 15.63369925, "ECCENTRICITY": 0.00016586, "INCLINATION": 43.0009, "RA_OF_ASC_NODE": 87.7376, "ARG_OF_PERICENTER": 283.8121, "MEAN_ANOMALY": 113.4625, "EPHEMERIS_TYPE": 0, "CLASSIFICATION_TYPE": "U", "NORAD_CAT_ID": 66519, "ELEMENT_SET_NO": 999, "REV_AT_EPOCH": 407, "BSTAR": -0.0242205, "MEAN_MOTION_DOT": -0.02014216, "MEAN_MOTION_DDOT": 0}, "tle": {"line1": "1 66519U 25265D   25341.00002315 -.02014216  00000+0 -24221-1 0  9992", "line2": "2 66519  43.0009  87.7376 0001658 283.8121 113.4625 15.63369925  4070"}}, "geometry": {"type": "Point", "coordinates": [-74.75313482754196, -17.957971610028757]}}]}